{"type": "FeatureCollection", "features": [{"type": "Feature", "properties": {"shapeName": "Rivers", "shapeISO": "NG-RI", "shapeID": "27671186B95832466049157", "shapeGroup": "NGA", "shapeType": "ADM1"}, "geometry": {"type": "Polygon", "coordinates": [[[7.495132284027761, 4.828270242877466], [7.494447230855087, 4.827918053075734], [7.49331808076488, 4.826177120277919], [7.491614818768937, 4.824431895915325], [7.488712310824553, 4.821804522960406], [7.487277984791206, 4.824673652567071], [7.486754894123123, 4.827636719059399], [7.478563308649825, 4.833039761375915], [7.474561179854618, 4.836541450727395], [7.474380015925021, 4.836699963432636], [7.471591472768296, 4.842277049746087], [7.4661884313511, 4.845414639574017], [7.460362910919628, 4.845418931138795], [7.455207825181049, 4.84506607134216], [7.446667670576574, 4.845414639574017], [7.436501026401288, 4.854000092130605], [7.429212093163642, 4.862449168794171], [7.416359900688917, 4.866746902047964], [7.412136487409043, 4.866373305683567], [7.406683922125353, 4.865890980384506], [7.404989324198027, 4.865391031970603], [7.402117235821834, 4.864543694336078], [7.384166485395042, 4.862748311185669], [7.373507022631031, 4.862891197270983], [7.370382078170394, 4.863550043299881], [7.362020016310737, 4.865313052655324], [7.360141276798515, 4.866603851386685], [7.352412224344732, 4.871914865178951], [7.34330972906082, 4.872725484393641], [7.340910911609342, 4.872939110251764], [7.334217072360047, 4.873313426973141], [7.330787182182746, 4.873486041947331], [7.326064586711368, 4.876126766237348], [7.319794177959011, 4.879632950400378], [7.30778598843267, 4.875533103969644], [7.305335686592684, 4.875463879554445], [7.294890881209255, 4.875168800299946], [7.293948571569388, 4.875077642319411], [7.283027861146934, 4.874021188926804], [7.28152799612019, 4.873876095005812], [7.271389961177817, 4.873023987367162], [7.263761979931473, 4.869221982908243], [7.261951989992383, 4.868702706264912], [7.257359000317649, 4.867384999817943], [7.247022313229195, 4.867324488934059], [7.224565148163094, 4.857883737944178], [7.218010078802138, 4.857304672572639], [7.198855971625846, 4.86169199988592], [7.188429721954151, 4.870896158131245], [7.183763074206581, 4.875218496836226], [7.177165510979592, 4.877333981977756], [7.173842907224412, 4.879391192849312], [7.164652824268501, 4.881329060088092], [7.161574268637651, 4.882175886008383], [7.158677859895363, 4.882972607999534], [7.155928135075442, 4.883728981907041], [7.149656564398981, 4.88849100995219], [7.147241115784936, 4.890325069346545], [7.146338310664532, 4.895850075020974], [7.146099436339966, 4.897577162755908], [7.144369752262321, 4.898680713644069], [7.144011346346588, 4.899053812683348], [7.141855510423511, 4.901298027681889], [7.14163638341239, 4.904555524118166], [7.143767834218238, 4.91319608802911], [7.150316237804191, 4.924333096195483], [7.15962600703466, 4.935448169897199], [7.168517113074358, 4.944752215842129], [7.181011391562492, 4.949128430232918], [7.181393146576511, 4.949262142334078], [7.183692103307976, 4.949898768813171], [7.199394225762944, 4.95424699810053], [7.209084034100954, 4.95650100671611], [7.217877864971513, 4.961559772365661], [7.222861062388176, 4.966031987586234], [7.225030990687742, 4.967979411021076], [7.228350162629965, 4.97095823273628], [7.230826272314687, 4.974647791362543], [7.235092163272782, 4.981004238255025], [7.238717897013373, 4.988727792253883], [7.241197109359177, 4.994009017802], [7.241910910260344, 4.996264628110168], [7.245464801659296, 5.007494925650349], [7.248316765006734, 5.017261982154821], [7.249167670251836, 5.021258444321802], [7.251686095736773, 5.033086776633468], [7.251503346302457, 5.042708989228515], [7.251376151588147, 5.04940605164802], [7.252893924814828, 5.06431198091326], [7.253443673187007, 5.068496136087845], [7.255775928216565, 5.077342987388988], [7.256077815338983, 5.07795710473664], [7.256930827695612, 5.079692363711672], [7.265121593886477, 5.095494285732741], [7.271354197838036, 5.103509902659937], [7.277640529087193, 5.114875334129408], [7.278150972589344, 5.11579819682936], [7.27869892141814, 5.116788863914962], [7.278979301253798, 5.119540691349869], [7.279316663932946, 5.122850561604196], [7.28021812366751, 5.131694794079522], [7.280538108746782, 5.132348037332122], [7.281304298754435, 5.133912197589893], [7.281312548235576, 5.133929038294525], [7.287724971630212, 5.147019863176183], [7.28919457267142, 5.152745293560486], [7.289828101885462, 5.155213462231529], [7.29068517288249, 5.158552531674047], [7.2910690314107, 5.160048008009198], [7.291755555874261, 5.165819459400552], [7.29216942837644, 5.169298780814131], [7.292564869273349, 5.172623158032366], [7.290813923423855, 5.182426929359337], [7.286756991741811, 5.191782950722654], [7.2816214608618, 5.201074035638271], [7.281322001908904, 5.201615810621206], [7.27495002732195, 5.209591866371568], [7.271048931063376, 5.211805561977144], [7.264343654236313, 5.215610503621917], [7.260108948169488, 5.21332740823334], [7.256109237651231, 5.213470936434589], [7.252560616279482, 5.20472002031272], [7.251398086952179, 5.201854228989532], [7.242135048293903, 5.195867061715546], [7.231534003691365, 5.19455194531605], [7.227855728858856, 5.194829440126625], [7.217730999386163, 5.195592880007439], [7.210087776429759, 5.196576595333681], [7.200284004203468, 5.199445248299639], [7.198362198856444, 5.199763102884958], [7.19390964461445, 5.201518536351443], [7.190780639714774, 5.202972411847384], [7.188223839258796, 5.204425334961286], [7.185384749706486, 5.206168175221137], [7.182541847028688, 5.207621574076427], [7.179408549664856, 5.208786010865765], [7.178589029859893, 5.209018930779052], [7.174276351672347, 5.21024465636583], [7.17141437527323, 5.210251331134089], [7.168567656771984, 5.211415291282719], [7.165431022923428, 5.212290764207467], [7.158279896400131, 5.212596415891937], [7.154713907321025, 5.212924456198721], [7.151132583901699, 5.213191508981026], [7.148297310172779, 5.213676928847235], [7.144279002573967, 5.214365004641309], [7.141417027074169, 5.214371681208149], [7.137703896317817, 5.214959145348303], [7.136174784438822, 5.214962659898902], [7.135630130725986, 5.214963912654468], [7.129712581770264, 5.215579510286204], [7.12711524976902, 5.215978145574979], [7.124798297603377, 5.216333867014384], [7.122664927644337, 5.21629238128844], [7.117270946896724, 5.218141078947667], [7.115069866081512, 5.218716620775467], [7.112276077179274, 5.219484806378773], [7.110287188702841, 5.22010421803526], [7.108289718895435, 5.220434665827213], [7.104862095909027, 5.22131426664015], [7.104058743216456, 5.221520423628704], [7.101769447002425, 5.222882270600337], [7.099493979663464, 5.223507881283751], [7.096863270223764, 5.22384357482116], [7.094953059835916, 5.225047588075768], [7.092122555211802, 5.226262568562731], [7.089570045421283, 5.227182387956873], [7.087322234933254, 5.228674411794714], [7.083796023767547, 5.228972435429625], [7.081119537037068, 5.230340481428129], [7.076833725196309, 5.232649802846197], [7.074863433800488, 5.233847141332546], [7.071746349414525, 5.235067844205673], [7.071163021256496, 5.235480518810959], [7.070062636881232, 5.236258983665209], [7.066473960604867, 5.237781525097375], [7.064420699555683, 5.239266395727611], [7.062163352656626, 5.240469455700861], [7.059900284270725, 5.240023135659214], [7.057805060854946, 5.242176532620931], [7.05596637714666, 5.24406671510684], [7.053144932292867, 5.245570660357714], [7.051229056176055, 5.246246851610977], [7.049116135001668, 5.246992588337321], [7.047133923092133, 5.247860908953839], [7.045132159921309, 5.248737812699972], [7.042693614918448, 5.249077796902839], [7.039992332080487, 5.249618052930828], [7.035687923159173, 5.248759748063947], [7.032238006878572, 5.24761056917248], [7.028792381263429, 5.246750355044924], [7.02333545696581, 5.245316029011576], [7.021244526014129, 5.244569302131652], [7.019309997958089, 5.243878841335516], [7.014990330239584, 5.241863251088205], [7.012022972182478, 5.242380141830154], [7.008833407835539, 5.241290569104535], [7.006873607930686, 5.240621090391073], [7.003732680718713, 5.239980697551175], [7.003581383274252, 5.239958220795302], [7.001007556853324, 5.23957586323553], [6.998440265805698, 5.239194393306661], [6.993147373352656, 5.237004758163096], [6.990743636609579, 5.236010551345942], [6.986503123620309, 5.23425579057232], [6.982931136962463, 5.23473691887375], [6.980701446914281, 5.235037326611405], [6.978500842739777, 5.235333920324194], [6.975482940984989, 5.235740184561905], [6.971787929769164, 5.236238003381175], [6.96778297440477, 5.234714985308358], [6.965338707015746, 5.233785628603925], [6.963143348586698, 5.232950687224502], [6.959775925318752, 5.231669903343402], [6.956932067560899, 5.231139660367091], [6.954387665158663, 5.230665206833862], [6.951506615038284, 5.230127810650004], [6.947784901152318, 5.229434013369087], [6.944733620160491, 5.228858470641967], [6.943569249920984, 5.228638946130502], [6.938544750240055, 5.227691649749886], [6.934500216611752, 5.226929188331439], [6.931180953838009, 5.226303101007375], [6.929527026850849, 5.226431311955537], [6.92890500985834, 5.226479530006372], [6.926602838949918, 5.225842521315371], [6.923666953567079, 5.225111960648519], [6.921226501102183, 5.224175453434498], [6.917620991315744, 5.222851653181294], [6.903954983435767, 5.219525813665427], [6.897809982444755, 5.221659660265175], [6.894636631075684, 5.222761631044477], [6.891583442621823, 5.223822116997155], [6.887593746054563, 5.225611210289173], [6.881956100293849, 5.23042202026005], [6.879556715370143, 5.233247675739676], [6.875578879961381, 5.237932204707533], [6.866418838858351, 5.243133067736949], [6.848985195010812, 5.249797821112622], [6.836094855992883, 5.249899863587871], [6.833809375602243, 5.250541209709127], [6.830335617394894, 5.251515865264992], [6.827092647707559, 5.252425670708192], [6.824282169186802, 5.254179478200399], [6.818212986440244, 5.257966994581182], [6.816560725896807, 5.259442008641827], [6.81136322003664, 5.264081954618575], [6.803584098727242, 5.269271851314954], [6.794449806113732, 5.277269839731389], [6.793134154617576, 5.278474415961568], [6.786231994610887, 5.284793853953261], [6.777565955604416, 5.293721199074128], [6.773920588764213, 5.297476076359885], [6.770724773229745, 5.300767899019377], [6.765624046112862, 5.308510302808259], [6.763694762903015, 5.312908648615291], [6.761453726108641, 5.31589989986054], [6.755795002037758, 5.323452949594014], [6.757574081378777, 5.342773914284749], [6.760469912756321, 5.353443146384166], [6.759709835440617, 5.366953850339996], [6.758449077662874, 5.377213000579559], [6.758446616218407, 5.377312596898889], [6.758138180232891, 5.389788150602726], [6.760583878443299, 5.40139293663475], [6.762536049399216, 5.410212994434175], [6.758967875866801, 5.420503138908771], [6.754459857736322, 5.429409027104953], [6.753319262873731, 5.433492183917224], [6.749034881854357, 5.438793181959852], [6.745812904142269, 5.445499251089586], [6.744081973604239, 5.449101925313641], [6.743738173577924, 5.458882808894543], [6.751194000302917, 5.464835167009426], [6.749948977963015, 5.476490020997744], [6.744967937120634, 5.484471798234949], [6.741359711381619, 5.494053840812171], [6.738784789586418, 5.493746280766288], [6.736568769233372, 5.493826160349045], [6.733294963591732, 5.493944167589291], [6.729844093130453, 5.493106842107125], [6.726963043010073, 5.491978645298275], [6.722477912625607, 5.491322041279204], [6.71990442255111, 5.490441321709682], [6.715590477218825, 5.489103794204766], [6.712041854947699, 5.489194870347035], [6.652729511058112, 5.490715980957816], [6.645450115130757, 5.49253559094484], [6.639080048005837, 5.493445873028691], [6.644210212631265, 5.528273192154131], [6.651403020932719, 5.577103236125481], [6.652051351188959, 5.581504573976929], [6.65843629759712, 5.624850273321499], [6.665866412704816, 5.6712004376501], [6.668868064609569, 5.689925194092496], [6.653137033447365, 5.681609277346297], [6.626002526795219, 5.683523453744442], [6.601873333187825, 5.687458521893291], [6.599704940031017, 5.678851447836109], [6.606450081106402, 5.670234203345842], [6.606889213766237, 5.669464413352046], [6.608761310885825, 5.66617345763899], [6.612325191054765, 5.659912108656954], [6.617293834742725, 5.651000023232541], [6.621345997319963, 5.642564773645461], [6.617601394788608, 5.631519318261951], [6.613107203734501, 5.626679419719494], [6.608144759972731, 5.621254921377556], [6.603773594375923, 5.614925860640028], [6.602045058732529, 5.607666015973905], [6.601007938065948, 5.5969495766617], [6.597568485397346, 5.590316347221687], [6.596168041322073, 5.587615489763095], [6.593402385911418, 5.580010414249273], [6.591673851167343, 5.574479103427905], [6.587871551730757, 5.567911147681343], [6.584760188831694, 5.561688422782538], [6.579228878010383, 5.559268475759609], [6.568858147085848, 5.553391458349154], [6.566329032259091, 5.553196993446534], [6.555376053262307, 5.55235481342396], [6.542584895976233, 5.549243449625521], [6.530831336896711, 5.531958579724744], [6.531044111996209, 5.530013243616338], [6.533251285718336, 5.509833813080036], [6.536935806342456, 5.491936207190236], [6.537696837838837, 5.478425025694435], [6.538163662423131, 5.475804329306413], [6.536655903147448, 5.469583987610974], [6.534836768901812, 5.4589743607782], [6.531979681217365, 5.453462885403894], [6.524530411449405, 5.438663960173699], [6.517558098027848, 5.434420108900952], [6.512404442211277, 5.428660392762936], [6.508820534140398, 5.425673961883888], [6.505941390582734, 5.425829410598851], [6.499718665683929, 5.426520823777025], [6.494187354862561, 5.425137997420677], [6.489347934759451, 5.422718525239816], [6.483125209860589, 5.420644283007277], [6.476556778372696, 5.404050827183994], [6.485476971185335, 5.379205227339412], [6.500597954432124, 5.379403114162415], [6.518475055779277, 5.380016804332115], [6.528549193890228, 5.379838942713093], [6.540015220825808, 5.380566120130368], [6.552827835036624, 5.379875182693581], [6.561977863087975, 5.379249096268836], [6.569632053276678, 5.372142791956321], [6.569458008380423, 5.362853049728528], [6.569312402745254, 5.3598079533744], [6.568703175011592, 5.347066879333056], [6.567076206102058, 5.333620071309269], [6.56315994277719, 5.320212840650129], [6.555650234071095, 5.310586930042859], [6.548624038668493, 5.302347183176039], [6.54117488940966, 5.295972823586965], [6.530881882393032, 5.284537791785738], [6.532513141967968, 5.273820876732145], [6.537384987127496, 5.264905930564282], [6.547463879954137, 5.257973660356186], [6.547786235646299, 5.257751942398272], [6.566636085986602, 5.236972809747442], [6.552762031642487, 5.226540565194966], [6.549230098989938, 5.212652206234395], [6.558826447082936, 5.198422908890166], [6.553380965759004, 5.189809800382022], [6.544492244721368, 5.186294078908645], [6.534568309579868, 5.18684530306831], [6.526298522658749, 5.174164772286474], [6.511361121618506, 5.171964169011233], [6.493334769683941, 5.163454056259752], [6.485816002106844, 5.153363227630905], [6.479144096422942, 5.139541148705121], [6.472980975891346, 5.128497124142996], [6.464336872248907, 5.107274054653942], [6.463312221581816, 5.104811027407038], [6.460981102396033, 5.099207533401], [6.46049881037186, 5.098048210156833], [6.451053142788339, 5.0828800196972], [6.443903922827815, 5.068137168995179], [6.443332164447895, 5.066345769841462], [6.439036845873773, 5.052887917243652], [6.429607867908828, 5.038650035870489], [6.425769806031781, 5.0294241922727], [6.417273997896757, 5.016098022006133], [6.411561012330878, 5.004581928013636], [6.410391808235431, 4.991127015299583], [6.421666144676863, 4.981634139603898], [6.430675982810385, 4.97357511509955], [6.437415122709808, 4.966485977046261], [6.440402031128883, 4.954815865160072], [6.440569705227745, 4.946659393716118], [6.44064092613786, 4.943194866150179], [6.433986186713184, 4.93030118884883], [6.425559997795688, 4.920691012780082], [6.420719146871193, 4.906836987237227], [6.414566040290595, 4.896256923818044], [6.406606196618725, 4.887104034123922], [6.404306893648254, 4.882290065733969], [6.400884151282582, 4.875123978089164], [6.398394108401419, 4.864480018737936], [6.398606777380905, 4.85146522524002], [6.399042657192922, 4.843022166839603], [6.399279117737137, 4.83844184861249], [6.402275085027213, 4.82723712869057], [6.402850498251951, 4.825928515288808], [6.408864975238487, 4.812250137234116], [6.412812232798331, 4.802886962663251], [6.41353375437933, 4.801039693127393], [6.419630185684582, 4.785431321398391], [6.422863959803976, 4.777152061018853], [6.429837954058371, 4.766102430982471], [6.429982184630148, 4.765873908753917], [6.434442557577995, 4.768819490627038], [6.444660187018087, 4.775567055375348], [6.444090843317838, 4.760978221667642], [6.441421986435557, 4.745329857087256], [6.445941925079808, 4.730044841995891], [6.459428787108891, 4.723997116174019], [6.459769747975542, 4.721757100110153], [6.461060046683883, 4.713280201120426], [6.478478909274315, 4.713901996879713], [6.48964405093227, 4.722999096231376], [6.497705492814305, 4.731277393436983], [6.498985766779754, 4.732592106040897], [6.510600090122125, 4.741216182680716], [6.517581939954596, 4.747134209176465], [6.527311802297902, 4.753003120097958], [6.529523789191558, 4.753572936841636], [6.537438869108598, 4.755611896871585], [6.55261182777366, 4.758596897828625], [6.563601971254002, 4.758402824131053], [6.579172134386567, 4.758128165782296], [6.588737010704506, 4.755170821676131], [6.598309994410783, 4.752677917152198], [6.607241153556458, 4.746353148878768], [6.60024976731296, 4.734055996387156], [6.593472480870332, 4.722457886022653], [6.586215019407689, 4.718504906076589], [6.578935622580957, 4.715189457327654], [6.574090480990947, 4.709374905027914], [6.573524845195493, 4.704851202720874], [6.573121071180537, 4.701622008848688], [6.567574978202742, 4.70164108256995], [6.56052255587133, 4.697745322888409], [6.562364101222329, 4.692440034180265], [6.553585051608877, 4.688412189271162], [6.546593188724728, 4.682030200733209], [6.537717819022191, 4.672893047376306], [6.528808116801201, 4.661898135690478], [6.511964797837209, 4.643144130597193], [6.515436171941815, 4.632859230069471], [6.51661777499038, 4.622614861087015], [6.526094913449526, 4.615013122957293], [6.535140990664217, 4.608811854983173], [6.538109778643445, 4.596213818113256], [6.544047832141814, 4.590173721240319], [6.548893452171114, 4.586297035279983], [6.545501231896367, 4.580966948665775], [6.540171146181478, 4.576605797019965], [6.543078423230668, 4.568368435155207], [6.551316260836813, 4.558192730310282], [6.560038090185742, 4.55431652099071], [6.566337109070389, 4.553831576865832], [6.560038090185742, 4.541233063355264], [6.553039074094045, 4.537399768784326], [6.545016766210836, 4.533480168075357], [6.542593955746497, 4.521851062576502], [6.549862385340873, 4.510221481336316], [6.54549326480236, 4.506106948976537], [6.53998517987219, 4.500919818594809], [6.537251471977925, 4.494982719277118], [6.534255028047141, 4.488474846337112], [6.531782149626565, 4.478759766150347], [6.525196075238739, 4.469583035428798], [6.522892951948222, 4.462992191036847], [6.519386767785136, 4.452957152750457], [6.516438006808642, 4.442320824146748], [6.512575149723432, 4.431702136644333], [6.511864185283969, 4.418239117441374], [6.512149393579705, 4.412142855208629], [6.512516975278231, 4.404285908368024], [6.511969640686402, 4.394878795619945], [6.511841774178606, 4.392681122336], [6.512063979569064, 4.380130768420258], [6.512791755035494, 4.376215765045572], [6.514143944187708, 4.368941783936236], [6.517242977381557, 4.364978040903907], [6.520407198833198, 4.360930919926034], [6.535923958424007, 4.357870101623917], [6.544572830271932, 4.354928017214263], [6.548027039016688, 4.343715190803437], [6.548255735713667, 4.340248743184986], [6.549243264165341, 4.325280383882671], [6.577956501891094, 4.324689994247876], [6.619999160932593, 4.325803398108405], [6.640951640605806, 4.311949642362151], [6.646742978705561, 4.315209038166643], [6.646996377081166, 4.326434140323386], [6.665402039672415, 4.327418492369588], [6.667665067588871, 4.327539521331914], [6.68249988566123, 4.328332901442309], [6.688528090798798, 4.329194283789207], [6.694166184421931, 4.329999922558443], [6.706372928967539, 4.338723196218552], [6.701178440332797, 4.362237410927833], [6.695553826647824, 4.380196632968307], [6.693843754086004, 4.389166330761611], [6.69124026442671, 4.395686055866861], [6.687567986273621, 4.404630956653364], [6.681656287407804, 4.409390798446623], [6.688712641575194, 4.422485648693794], [6.700298586810391, 4.419594540555636], [6.697487456281124, 4.447589546420488], [6.695306534668873, 4.460855291238772], [6.691456865242174, 4.471632990570129], [6.690317210171145, 4.482135438000114], [6.691890102846003, 4.489391155677367], [6.692084530876457, 4.494025936847549], [6.689307104239504, 4.511580300290689], [6.689794418977328, 4.518517127363566], [6.695117730099241, 4.533603882413274], [6.70718160744525, 4.554011146297398], [6.713199983892196, 4.561822291565534], [6.719340955920416, 4.578303356414835], [6.720858762421983, 4.599189611811198], [6.718655173397565, 4.610930067768436], [6.724456046109708, 4.612705196387765], [6.726591050136904, 4.608653252345789], [6.726611183259536, 4.603855229835062], [6.728590802423639, 4.593690859145909], [6.731711427440473, 4.584676250108885], [6.732069947570096, 4.572289694214078], [6.726655652036754, 4.556665015078408], [6.722632483602297, 4.550716276734818], [6.716884289578331, 4.545611848907754], [6.711374032785443, 4.535807118004129], [6.706084708842297, 4.521287530295353], [6.700711175080698, 4.511122974345824], [6.69880868267461, 4.501876723332146], [6.697141399855752, 4.49605853327472], [6.699711612800741, 4.477333087951706], [6.703535522046764, 4.465428875342354], [6.709166527213483, 4.457221985206502], [6.707922755830566, 4.447366913852022], [6.707383907241592, 4.444904216656312], [6.711477079803444, 4.431484956665486], [6.715943648180883, 4.416579460873493], [6.715971118872062, 4.408762747003209], [6.713105359924441, 4.404965001733501], [6.712629873070227, 4.403491711673212], [6.712791269901231, 4.401219429732919], [6.713507250759051, 4.384007714284621], [6.712499618862353, 4.358888626109263], [6.716943741060845, 4.34999942843092], [6.737990222370911, 4.346388816790522], [6.762662388858189, 4.346421917237763], [6.792128965279574, 4.348606242783944], [6.836022645828507, 4.352542551997203], [6.857139546752705, 4.355811391582506], [6.875197479280303, 4.357069429810394], [6.874828323768156, 4.36379287743938], [6.856943177985329, 4.379057093010488], [6.850176854278459, 4.390094281825668], [6.858177814054898, 4.398239956908526], [6.954852500442598, 4.373529178928493], [6.957471959363488, 4.37300528066919], [6.975106673634116, 4.375336970924536], [6.990520918605569, 4.370264862933141], [6.996397017808192, 4.369870111816283], [6.998610496677145, 4.369721413412549], [7.005555153247769, 4.369443893421021], [7.011110305995885, 4.370554923970587], [7.019443512208397, 4.37555503943355], [7.022499084765002, 4.37944412344757], [7.024722099145606, 4.384165763838951], [7.024999618237814, 4.389444350776216], [7.023055076230833, 4.394443512058501], [7.01735251021023, 4.409040926197861], [7.000866215803285, 4.418643324929576], [6.994643918981751, 4.435629983237163], [6.991781405687391, 4.451658465166076], [6.992411389773849, 4.462019931274881], [6.991288704010515, 4.469586490624067], [6.984706329433607, 4.477269835934237], [6.979253521332964, 4.48790137834601], [6.975576589188279, 4.503307866664784], [6.977458542877514, 4.508370297950933], [6.982980716586837, 4.511560456749748], [6.985003847649523, 4.513937319951424], [6.981567718875169, 4.532665136786704], [6.976598649807897, 4.583009786572461], [6.975380111602931, 4.597201727877462], [6.983824241995194, 4.617081009680874], [6.998258339250981, 4.606652048553258], [6.993949163922821, 4.58989488464124], [6.99750037174482, 4.56377479527066], [7.002679544025796, 4.548678856344168], [7.008234614036269, 4.536502506185741], [7.009428323758186, 4.530700562381071], [7.00832451836186, 4.526917630744094], [7.007310089389136, 4.512759116340192], [7.014221539392565, 4.480758107400789], [7.015878792971989, 4.468389999299063], [7.019041946029063, 4.460712202805951], [7.022091935594403, 4.453404758822614], [7.021380826364066, 4.44669768515007], [7.024137982282127, 4.441202241090593], [7.034162092006966, 4.437805123107978], [7.044444084127235, 4.436388014595252], [7.067277678422158, 4.440621665757305], [7.075081576053947, 4.446326462995899], [7.094134457339408, 4.45304666497168], [7.103698333611248, 4.451491124715687], [7.158905853322494, 4.463628911944795], [7.170017503305189, 4.486531211746069], [7.177379403037094, 4.515041003939245], [7.177115221790075, 4.529487835595205], [7.165950110709105, 4.548644314283706], [7.176353390796407, 4.571148766602334], [7.176110268074467, 4.584444046055921], [7.171173625862195, 4.599898041061806], [7.169721602969673, 4.604443550129758], [7.157298075945505, 4.629369385688619], [7.150220917761203, 4.640579460174024], [7.145461727976397, 4.645001048959273], [7.129156405044114, 4.656489597616883], [7.104802321569935, 4.666491962634041], [7.095793138142881, 4.668422442841518], [7.092124762148103, 4.676237978599886], [7.083538115291844, 4.684146329789314], [7.078708219908492, 4.702666244051954], [7.081368702303791, 4.713988555727326], [7.081893260665481, 4.71886433362215], [7.081787627197286, 4.721914411321052], [7.085702707014377, 4.723166614747527], [7.088006853733361, 4.718719086816463], [7.089010058267604, 4.711588528687685], [7.088694934024034, 4.706246693330286], [7.088784475922864, 4.701060312083769], [7.091352909109503, 4.692871989350863], [7.096840160345153, 4.686089101930577], [7.102399169386217, 4.678520317658581], [7.108230539008218, 4.673954392181486], [7.123408985336425, 4.669721722179759], [7.144192373579244, 4.664946521764591], [7.152780442263634, 4.659988713108646], [7.168410442687843, 4.631669274117769], [7.190276745975098, 4.609984379375646], [7.206548123996754, 4.564556137056115], [7.216747768794562, 4.54484232331464], [7.217447516889422, 4.520663660699427], [7.199329007827487, 4.492965430210461], [7.193383998073102, 4.482098596373191], [7.191078381861871, 4.478897843560674], [7.188748262722186, 4.475677304763849], [7.183555682448855, 4.470061239134907], [7.181636897025214, 4.467744308553051], [7.175727236023192, 4.45996772063387], [7.174035872057914, 4.459320423698671], [7.170847528990294, 4.457590304349139], [7.168784948266818, 4.453357934720941], [7.166636279940406, 4.447626773856598], [7.158920699330849, 4.438192745298977], [7.14845873937935, 4.42545480539502], [7.134745544970997, 4.410417690224278], [7.133496948725224, 4.403874260788541], [7.133888244646812, 4.394443512058501], [7.132183773062707, 4.385803287192005], [7.133022886397157, 4.382432292716203], [7.13490963437215, 4.378427936300284], [7.13713564889116, 4.376492114119799], [7.137022229991942, 4.374928015915259], [7.137316659935948, 4.374508025325156], [7.138432918244632, 4.374885967213686], [7.139904966341192, 4.375989406585916], [7.140466583965747, 4.378110502597679], [7.139263699360299, 4.380121453242509], [7.140577088162161, 4.383178603210013], [7.143827124722065, 4.384137217558589], [7.150202343163642, 4.384226086764556], [7.166633227641398, 4.38105570495685], [7.18185139342711, 4.379548439409007], [7.20379013260856, 4.379027593448711], [7.215821959915559, 4.380440946392582], [7.220538838396749, 4.381823224162531], [7.253826723224734, 4.392881932854948], [7.278503410603946, 4.399213439748507], [7.296671748402503, 4.406061156597161], [7.308054924395321, 4.408888816665581], [7.320928936221492, 4.414033399222035], [7.328556614396291, 4.416780480035186], [7.327239595930678, 4.420953796580477], [7.323135695356086, 4.433503750297859], [7.324597042419612, 4.439467656607121], [7.33342266612317, 4.443715811135803], [7.339921480192231, 4.442585911011008], [7.349631111386714, 4.44289308794572], [7.367330978841665, 4.442022033390174], [7.390653073180829, 4.436477634735127], [7.40667202139673, 4.43362494473547], [7.418445176703585, 4.43152835614876], [7.428171686374299, 4.434343924832319], [7.430027637065848, 4.434881174426721], [7.445567242134587, 4.439379479879165], [7.447379422822166, 4.439904058925208], [7.465520134346775, 4.443877738566812], [7.487354367809871, 4.448660476200075], [7.518572896422086, 4.451325472292751], [7.580250995087397, 4.450080850151153], [7.587081569958514, 4.453168460156348], [7.590608261362206, 4.458922782160698], [7.589747856578356, 4.462754353630544], [7.585296844673678, 4.461396979886786], [7.583302377702637, 4.461294702688406], [7.582057384141024, 4.466141766129624], [7.582152095342963, 4.469980445840974], [7.581654521139285, 4.475741752879628], [7.585985387215885, 4.482307829942442], [7.589435099350396, 4.489530197160946], [7.583170026275752, 4.493258420339885], [7.57803272103331, 4.496075004358033], [7.5766189193277, 4.497021161297596], [7.570971370232598, 4.498233245068263], [7.557077808693975, 4.502879546553856], [7.550027588802209, 4.509595039679368], [7.542669707241259, 4.514729457198712], [7.541130851207868, 4.51643064895535], [7.538965222567015, 4.518823815966357], [7.532558612390119, 4.52590355790295], [7.527694156959797, 4.538423117233094], [7.522887885867306, 4.546429787704596], [7.521420911745736, 4.550237687219521], [7.5212876861778, 4.554671519375177], [7.526958677001403, 4.565597925204145], [7.54290148681423, 4.575457245855262], [7.543707575244468, 4.579796084421787], [7.537597539894591, 4.585372335265106], [7.532307384078536, 4.591298665201293], [7.529443741235696, 4.596110343917303], [7.527729764716923, 4.599277274126962], [7.525932350897335, 4.602819834068157], [7.524896035123959, 4.613096471624885], [7.52358886063746, 4.617812404019276], [7.519175146316002, 4.626661261707909], [7.517632614753438, 4.633599542984541], [7.519544312619985, 4.642011328360184], [7.524138809558451, 4.654927604725231], [7.521498811021388, 4.662054839859024], [7.516347139109257, 4.663271338401614], [7.517499923382786, 4.679721832596556], [7.521944045581279, 4.689166069358635], [7.527777671602337, 4.696944235588035], [7.535064208146764, 4.700366528292705], [7.53547795474384, 4.714003163415327], [7.537327754971955, 4.716149402672841], [7.54225845896076, 4.730119211432509], [7.541235433368627, 4.73246887014227], [7.533941827253557, 4.753361331760118], [7.533988361773538, 4.756327947876514], [7.531638735439344, 4.768375274999016], [7.52519559929749, 4.773279588382366], [7.509579380084347, 4.785166166185661], [7.511819568818112, 4.793050653864611], [7.511467224332989, 4.807282652772244], [7.500726118415685, 4.819924766314955], [7.4982966493709, 4.823796422367025], [7.495132284027761, 4.828270242877466]]]}}]}